OBJECT_NAME,OBJECT_ID,EPOCH,MEAN_MOTION,ECCENTRICITY,INCLINATION,RA_OF_ASC_NODE,ARG_OF_PERICENTER,MEAN_ANOMALY,EPHEMERIS_TYPE,CLASSIFICATION_TYPE,NORAD_CAT_ID,ELEMENT_SET_NO,REV_AT_EPOCH,BSTAR,MEAN_MOTION_DOT,MEAN_MOTION_DDOT
ATLAS CENTAUR 2,1963-047A,2026-07-07T05:04:18.721920,14.12554496,.0545738,30.3517,247.4112,54.1079,310.8945,0,U,694,999,14853,.10843E-3,.974E-5,0
THOR AGENA D R/B,1964-002A,2026-07-07T11:02:45.390048,14.34073972,.0031751,99.1153,208.2857,269.8333,89.9211,0,U,733,999,25546,.67882E-4,.142E-5,0
SL-3 R/B,1964-053B,2026-07-07T09:07:33.432384,14.61436694,.0080506,65.0780,340.3034,254.7836,104.4352,0,U,877,999,28428,.50744E-4,.137E-5,0
SL-8 R/B,1967-045B,2026-07-07T07:00:38.674656,14.45692552,.0063005,74.0112,124.7093,103.5774,257.2413,0,U,2802,999,10630,.76537E-4,.25E-5,0
SL-8 R/B,1968-040B,2026-07-07T03:21:47.121408,15.03914646,.0025451,74.0303,69.4818,219.1870,140.7477,0,U,3230,999,10796,.16544E-3,.2253E-4,0
OAO 2,1968-110A,2026-07-07T11:22:50.281248,14.47359906,.0004844,34.9944,316.4053,75.3913,284.7315,0,U,3597,999,3646,.4602E-4,.152E-5,0
ISIS 1,1969-009A,2026-07-07T06:49:28.251264,11.30435896,.1706963,88.4445,142.1923,207.6262,142.2971,0,U,3669,999,36204,.46248E-4,.71E-6,0
OAO 3 (COPERNICUS),1972-065A,2026-07-07T11:23:47.167008,14.60072044,.0006002,35.0068,334.8072,56.6096,347.9993,0,U,6153,999,86371,.55832E-4,.251E-5,0
ATLAS CENTAUR R/B,1972-065B,2026-07-07T09:49:03.819072,14.77958195,.003422,35.0027,323.9892,297.8597,61.8639,0,U,6155,999,85898,.10426E-3,.747E-5,0
SEASAT 1,1978-064A,2026-07-07T03:50:18.224160,14.46256805,.0001263,108.0185,16.2164,247.4863,112.6149,0,U,10967,999,52378,.81929E-4,.156E-5,0
SL-8 R/B,1979-089B,2026-07-07T02:38:49.597728,14.42412688,.0015672,74.0673,229.9764,6.9880,353.1492,0,U,11574,999,45332,.59366E-4,.17E-5,0
SL-14 R/B,1980-005B,2026-07-07T10:53:43.080576,14.91045428,.0017093,82.5132,193.6148,121.1008,239.1891,0,U,11672,999,49433,.42537E-4,.448E-5,0
SL-3 R/B,1981-103B,2026-07-07T11:53:15.436320,15.22450544,.0011627,81.1578,72.7721,239.7209,120.2873,0,U,12904,999,99145,.1503E-3,.3507E-4,0
SL-3 R/B,1982-039B,2026-07-07T12:03:53.864928,15.10668160,.0027645,81.1499,77.6163,285.2402,74.5767,0,U,13154,999,39972,.15031E-3,.2532E-4,0
SL-3 R/B,1982-079B,2026-07-07T12:15:24.625152,15.25965391,.0024896,81.1451,51.4442,118.3786,241.9962,0,U,13403,999,39596,.13645E-3,.3562E-4,0
SL-14 R/B,1982-092B,2026-07-06T23:37:00.281856,14.86760972,.0018735,82.5669,29.7763,265.0769,211.4794,0,U,13553,999,34665,.35425E-4,.341E-5,0
SL-3 R/B,1983-010B,2026-07-07T01:52:45.852672,15.49760574,.0013977,81.1000,215.4572,353.5478,6.5586,0,U,13819,999,37641,.1958E-3,.10955E-3,0
COSMOS 1536,1984-013A,2026-07-07T10:27:13.991904,15.25283141,.0013226,82.5454,348.6731,216.6051,143.4285,0,U,14699,999,29086,.17038E-3,.4329E-4,0
SL-8 R/B,1985-006B,2026-07-07T01:45:33.556320,14.37842293,.001924,74.0452,41.4689,285.6709,236.5957,0,U,15483,999,17118,.50449E-4,.126E-5,0
