ATLAS CENTAUR 2         
1 00694U 63047A   26188.21132781  .00000974  00000+0  10843-3 0  9997
2 00694  30.3517 247.4112 0545738  54.1079 310.8945 14.12554496148531
THOR AGENA D R/B        
1 00733U 64002A   26188.46024758  .00000142  00000+0  67882-4 0  9997
2 00733  99.1153 208.2857 0031751 269.8333  89.9211 14.34073972255468
SL-3 R/B                
1 00877U 64053B   26188.38024806  .00000137  00000+0  50744-4 0  9990
2 00877  65.0780 340.3034 0080506 254.7836 104.4352 14.61436694284288
SL-8 R/B                
1 02802U 67045B   26188.29211430  .00000250  00000+0  76537-4 0  9999
2 02802  74.0112 124.7093 0063004 103.5774 257.2413 14.45692552106302
SL-8 R/B                
1 03230U 68040B   26188.14012872  .00002253  00000+0  16544-3 0  9990
2 03230  74.0303  69.4818 0025450 219.1870 140.7477 15.03914646107969
OAO 2                   
1 03597U 68110A   26188.47419307  .00000152  00000+0  46020-4 0  9993
2 03597  34.9944 316.4053 0004843  75.3913 284.7315 14.47359906 36465
ISIS 1                  
1 03669U 69009A   26188.28435476  .00000071  00000+0  46248-4 0  9997
2 03669  88.4445 142.1923 1706962 207.6262 142.2971 11.30435896362048
OAO 3 (COPERNICUS)      
1 06153U 72065A   26188.47485148  .00000251  00000+0  55832-4 0  9995
2 06153  35.0068 334.8072 0006001  56.6096 347.9993 14.60072044863712
ATLAS CENTAUR R/B       
1 06155U 72065B   26188.40907198  .00000747  00000+0  10426-3 0  9993
2 06155  35.0027 323.9892 0034220 297.8597  61.8639 14.77958196858988
SEASAT 1                
1 10967U 78064A   26188.15993315  .00000156  00000+0  81929-4 0  9993
2 10967 108.0185  16.2164 0001263 247.4863 112.6149 14.46256805523784
SL-8 R/B                
1 11574U 79089B   26188.11029628  .00000170  00000+0  59366-4 0  9995
2 11574  74.0673 229.9764 0015672   6.9880 353.1492 14.42412688453322
SL-14 R/B               
1 11672U 80005B   26188.45397085  .00000448  00000+0  42537-4 0  9996
2 11672  82.5132 193.6148 0017092 121.1008 239.1891 14.91045428494338
SL-3 R/B                
1 12904U 81103B   26188.49531755  .00003507  00000+0  15030-3 0  9999
2 12904  81.1578  72.7721 0011626 239.7209 120.2873 15.22450544991455
SL-3 R/B                
1 13154U 82039B   26188.50270678  .00002532  00000+0  15031-3 0  9990
2 13154  81.1499  77.6163 0027644 285.2402  74.5767 15.10668160399724
SL-3 R/B                
1 13403U 82079B   26188.51070168  .00003562  00000+0  13645-3 0  9997
2 13403  81.1451  51.4442 0024895 118.3786 241.9962 15.25965391395966
SL-14 R/B               
1 13553U 82092B   26187.98403105  .00000341  00000+0  35425-4 0  9992
2 13553  82.5669  29.7763 0018735 265.0769 211.4794 14.86760972346650
SL-3 R/B                
1 13819U 83010B   26188.07830849  .00010955  00000+0  19580-3 0  9993
2 13819  81.1000 215.4572 0013976 353.5478   6.5586 15.49760574376410
COSMOS 1536             
1 14699U 84013A   26188.43557862  .00004329  00000+0  17038-3 0  9999
2 14699  82.5454 348.6731 0013226 216.6051 143.4285 15.25283141290860
SL-8 R/B                
1 15483U 85006B   26188.07330505  .00000126  00000+0  50449-4 0  9992
2 15483  74.0452  41.4689 0019239 285.6709 236.5957 14.37842293171186
